{
  "type": "FeatureCollection",
  "features": [
    {
      "type": "Feature",
      "geometry": {
        "type": "Polygon",
        "coordinates": [[[75.2, 11.5], [78.2, 11.5], [78.6, 12.8], [78.5, 14.5], [77.2, 15.0], [75.5, 14.8], [74.8, 13.0], [75.2, 11.5]]]
      },
      "properties": {
        "zone_id": "Zone 1",
        "zone_speed": 33,
        "v_b_ms": 33.0,
        "name": "Zone 1 (33 m/s) - Low Damage Risk",
        "color": "#60A5FA",
        "stroke": "#64748B",
        "fill_opacity": 0.18
      }
    },
    {
      "type": "Feature",
      "geometry": {
        "type": "Polygon",
        "coordinates": [[[84.8, 19.0], [86.2, 19.5], [87.5, 21.2], [89.2, 22.2], [89.0, 23.5], [87.2, 23.0], [85.5, 21.0], [84.5, 19.8], [84.8, 19.0]]]
      },
      "properties": {
        "zone_id": "Zone 6",
        "zone_speed": 55,
        "v_b_ms": 55.0,
        "name": "Zone 6 (55 m/s) - Extreme Damage Risk",
        "color": "#7E22CE",
        "stroke": "#64748B",
        "fill_opacity": 0.18
      }
    },
    {
      "type": "Feature",
      "geometry": {
        "type": "Polygon",
        "coordinates": [[[79.0, 8.5], [80.5, 10.0], [80.8, 13.5], [82.8, 16.5], [84.2, 18.5], [84.8, 19.0], [84.5, 19.8], [83.0, 18.2], [81.5, 16.0], [79.6, 13.0], [78.8, 10.0], [77.5, 8.2], [79.0, 8.5]]]
      },
      "properties": {
        "zone_id": "Zone 5",
        "zone_speed": 50,
        "v_b_ms": 50.0,
        "name": "Zone 5 (50 m/s) - Very High Damage Risk (East Coast)",
        "color": "#EF4444",
        "stroke": "#64748B",
        "fill_opacity": 0.18
      }
    },
    {
      "type": "Feature",
      "geometry": {
        "type": "Polygon",
        "coordinates": [[[68.0, 20.5], [72.5, 20.5], [73.5, 22.5], [72.0, 24.5], [68.0, 24.5], [68.0, 20.5]]]
      },
      "properties": {
        "zone_id": "Zone 5",
        "zone_speed": 50,
        "v_b_ms": 50.0,
        "name": "Zone 5 (50 m/s) - Very High Damage Risk (Gujarat Coast)",
        "color": "#EF4444",
        "stroke": "#64748B",
        "fill_opacity": 0.18
      }
    },
    {
      "type": "Feature",
      "geometry": {
        "type": "Polygon",
        "coordinates": [[[74.5, 8.0], [77.5, 8.2], [76.5, 10.5], [75.2, 12.0], [74.5, 14.5], [73.2, 18.0], [72.5, 20.5], [71.5, 20.5], [72.2, 18.5], [73.0, 15.0], [74.5, 8.0]]]
      },
      "properties": {
        "zone_id": "Zone 3",
        "zone_speed": 44,
        "v_b_ms": 44.0,
        "name": "Zone 3 (44 m/s) - High Damage Risk",
        "color": "#FBBF24",
        "stroke": "#64748B",
        "fill_opacity": 0.18
      }
    },
    {
      "type": "Feature",
      "geometry": {
        "type": "Polygon",
        "coordinates": [[[69.5, 24.5], [75.0, 24.5], [82.0, 23.5], [88.5, 24.0], [88.5, 28.0], [81.0, 31.0], [74.0, 32.5], [73.0, 29.0], [69.5, 27.0], [69.5, 24.5]]]
      },
      "properties": {
        "zone_id": "Zone 4",
        "zone_speed": 47,
        "v_b_ms": 47.0,
        "name": "Zone 4 (47 m/s) - High Damage Risk",
        "color": "#F97316",
        "stroke": "#64748B",
        "fill_opacity": 0.18
      }
    },
    {
      "type": "Feature",
      "geometry": {
        "type": "Polygon",
        "coordinates": [[[73.0, 14.5], [78.5, 14.5], [82.0, 16.5], [85.0, 19.5], [85.5, 23.0], [81.5, 24.0], [75.0, 24.5], [73.0, 20.5], [73.2, 18.0], [73.0, 14.5]]]
      },
      "properties": {
        "zone_id": "Zone 2",
        "zone_speed": 39,
        "v_b_ms": 39.0,
        "name": "Zone 2 (39 m/s) - Moderate Damage Risk",
        "color": "#34D399",
        "stroke": "#64748B",
        "fill_opacity": 0.18
      }
    }
  ]
}
